{
"type": "FeatureCollection",
"name": "aoi_bugdoy_69cbe784a770ad19d067031c",
"crs": { "type": "name", "properties": { "name": "urn:ogc:def:crs:OGC:1.3:CRS84" } },
"features": [
{ "type": "Feature", "properties": { "id": "69cbe784a770ad19d067031c", "crop_type": "bugdoy", "tuman": "Zarbdor tumani", "viloyat": "Jizzax viloyati" }, "geometry": { "type": "MultiPolygon", "coordinates": [ [ [ [ 68.295876577611736, 40.094740777543642 ], [ 68.29579942670189, 40.095452011742466 ], [ 68.295734474913587, 40.095595419857581 ], [ 68.295481741993228, 40.096098412040483 ], [ 68.295451873908362, 40.09618177173202 ], [ 68.295493382069054, 40.096187675410498 ], [ 68.295493381464382, 40.096187676662126 ], [ 68.299990916410252, 40.096827356983262 ], [ 68.299990916495901, 40.09682735678318 ], [ 68.299992314188856, 40.096827555576134 ], [ 68.300100809115577, 40.096587072907298 ], [ 68.300115098817287, 40.096537238560202 ], [ 68.300115100413436, 40.096537234831239 ], [ 68.300182202768525, 40.096303218168117 ], [ 68.3002522075803, 40.096059084718547 ], [ 68.300272720609826, 40.095915405456488 ], [ 68.300222245172307, 40.095885851820924 ], [ 68.298448024875469, 40.095418351277168 ], [ 68.295876577611736, 40.094740777543642 ] ] ] ] } }
]
}
